{"fetched_at":"2026-07-07T18:29:09.813Z","source":"https://celestrak.org/NORAD/elements/gp.php?GROUP=spire&FORMAT=JSON","constellation":"spire","records":[{"OBJECT_NAME":"LEMUR-2-HUBBLE-4","OBJECT_ID":"2025-135AP","EPOCH":"2026-07-07T05:40:18.962976","CLASSIFICATION_TYPE":"U","MEAN_MOTION":14.93668736,"ECCENTRICITY":0.0001964,"INCLINATION":97.7713,"RA_OF_ASC_NODE":301.9077,"ARG_OF_PERICENTER":185.5472,"MEAN_ANOMALY":174.5726,"EPHEMERIS_TYPE":0,"NORAD_CAT_ID":64565,"ELEMENT_SET_NO":999,"REV_AT_EPOCH":5686,"BSTAR":0.00010797,"MEAN_MOTION_DOT":0.00001085,"MEAN_MOTION_DDOT":0},{"OBJECT_NAME":"LEMUR-2-SEJONG-2","OBJECT_ID":"2025-135BL","EPOCH":"2026-07-07T13:27:44.995680","CLASSIFICATION_TYPE":"U","MEAN_MOTION":14.96876328,"ECCENTRICITY":0.0003223,"INCLINATION":97.7706,"RA_OF_ASC_NODE":303.4461,"ARG_OF_PERICENTER":253.1473,"MEAN_ANOMALY":106.9396,"EPHEMERIS_TYPE":0,"NORAD_CAT_ID":64586,"ELEMENT_SET_NO":999,"REV_AT_EPOCH":5699,"BSTAR":0.00019396,"MEAN_MOTION_DOT":0.00002166,"MEAN_MOTION_DDOT":0},{"OBJECT_NAME":"LEMUR-2-HUBBLE-5","OBJECT_ID":"2025-135BT","EPOCH":"2026-07-07T02:44:13.415424","CLASSIFICATION_TYPE":"U","MEAN_MOTION":14.94195154,"ECCENTRICITY":0.0004095,"INCLINATION":97.7734,"RA_OF_ASC_NODE":302.4471,"ARG_OF_PERICENTER":270.5745,"MEAN_ANOMALY":89.5005,"EPHEMERIS_TYPE":0,"NORAD_CAT_ID":64840,"ELEMENT_SET_NO":999,"REV_AT_EPOCH":5688,"BSTAR":0.00012888,"MEAN_MOTION_DOT":0.00001323,"MEAN_MOTION_DDOT":0},{"OBJECT_NAME":"LEMUR-2-KARENDARRELL","OBJECT_ID":"2025-135BU","EPOCH":"2026-07-06T20:39:06.820704","CLASSIFICATION_TYPE":"U","MEAN_MOTION":15.00420938,"ECCENTRICITY":0.0011589,"INCLINATION":97.7696,"RA_OF_ASC_NODE":304.0402,"ARG_OF_PERICENTER":131.282,"MEAN_ANOMALY":228.9403,"EPHEMERIS_TYPE":0,"NORAD_CAT_ID":64841,"ELEMENT_SET_NO":999,"REV_AT_EPOCH":5696,"BSTAR":0.00047253,"MEAN_MOTION_DOT":0.0000589,"MEAN_MOTION_DDOT":0},{"OBJECT_NAME":"LEMUR-2-LUCILLE-ROSE","OBJECT_ID":"2025-135BV","EPOCH":"2026-07-07T10:25:07.902336","CLASSIFICATION_TYPE":"U","MEAN_MOTION":15.00426993,"ECCENTRICITY":0.001391,"INCLINATION":97.7717,"RA_OF_ASC_NODE":304.6479,"ARG_OF_PERICENTER":213.0258,"MEAN_ANOMALY":147.0098,"EPHEMERIS_TYPE":0,"NORAD_CAT_ID":65403,"ELEMENT_SET_NO":999,"REV_AT_EPOCH":5167,"BSTAR":0.0003739,"MEAN_MOTION_DOT":0.0000465,"MEAN_MOTION_DDOT":0},{"OBJECT_NAME":"LEMUR-2-AFFIE-WAUWIE","OBJECT_ID":"2025-248C","EPOCH":"2026-07-05T19:47:57.109056","CLASSIFICATION_TYPE":"U","MEAN_MOTION":15.27976863,"ECCENTRICITY":0.0008364,"INCLINATION":45.3926,"RA_OF_ASC_NODE":13.9564,"ARG_OF_PERICENTER":202.7682,"MEAN_ANOMALY":157.2838,"EPHEMERIS_TYPE":0,"NORAD_CAT_ID":66295,"ELEMENT_SET_NO":999,"REV_AT_EPOCH":3744,"BSTAR":0.00082702,"MEAN_MOTION_DOT":0.00022785,"MEAN_MOTION_DDOT":0},{"OBJECT_NAME":"LEMUR-2-DEANANDMAEVE","OBJECT_ID":"2025-276N","EPOCH":"2026-07-07T04:44:41.017344","CLASSIFICATION_TYPE":"U","MEAN_MOTION":15.19993148,"ECCENTRICITY":0.0004155,"INCLINATION":97.4199,"RA_OF_ASC_NODE":261.3438,"ARG_OF_PERICENTER":292.2862,"MEAN_ANOMALY":67.7932,"EPHEMERIS_TYPE":0,"NORAD_CAT_ID":66678,"ELEMENT_SET_NO":999,"REV_AT_EPOCH":3345,"BSTAR":0.00021623,"MEAN_MOTION_DOT":0.00004589,"MEAN_MOTION_DDOT":0},{"OBJECT_NAME":"LEMUR-2-STAS-GORBUK","OBJECT_ID":"2025-276W","EPOCH":"2026-07-07T03:37:44.601024","CLASSIFICATION_TYPE":"U","MEAN_MOTION":15.19603156,"ECCENTRICITY":0.0003485,"INCLINATION":97.4234,"RA_OF_ASC_NODE":261.3507,"ARG_OF_PERICENTER":289.3119,"MEAN_ANOMALY":70.7738,"EPHEMERIS_TYPE":0,"NORAD_CAT_ID":66686,"ELEMENT_SET_NO":999,"REV_AT_EPOCH":3344,"BSTAR":0.00021123,"MEAN_MOTION_DOT":0.0000443,"MEAN_MOTION_DDOT":0},{"OBJECT_NAME":"LEMUR-2-TEODOR","OBJECT_ID":"2025-276DG","EPOCH":"2026-07-07T10:36:24.727104","CLASSIFICATION_TYPE":"U","MEAN_MOTION":15.21281439,"ECCENTRICITY":0.0002348,"INCLINATION":97.4139,"RA_OF_ASC_NODE":261.8986,"ARG_OF_PERICENTER":96.3146,"MEAN_ANOMALY":263.8357,"EPHEMERIS_TYPE":0,"NORAD_CAT_ID":66768,"ELEMENT_SET_NO":999,"REV_AT_EPOCH":3352,"BSTAR":0.0001701,"MEAN_MOTION_DOT":0.00003734,"MEAN_MOTION_DDOT":0},{"OBJECT_NAME":"LEMUR-2-LAILA","OBJECT_ID":"2025-276DQ","EPOCH":"2026-07-07T03:35:45.991104","CLASSIFICATION_TYPE":"U","MEAN_MOTION":15.21504624,"ECCENTRICITY":0.0002881,"INCLINATION":97.4163,"RA_OF_ASC_NODE":261.7444,"ARG_OF_PERICENTER":106.6204,"MEAN_ANOMALY":253.5349,"EPHEMERIS_TYPE":0,"NORAD_CAT_ID":66776,"ELEMENT_SET_NO":999,"REV_AT_EPOCH":3348,"BSTAR":0.00021076,"MEAN_MOTION_DOT":0.00004674,"MEAN_MOTION_DDOT":0},{"OBJECT_NAME":"LEMUR-2-CELIJO-SB-PK","OBJECT_ID":"2025-276DW","EPOCH":"2026-07-07T10:45:11.124288","CLASSIFICATION_TYPE":"U","MEAN_MOTION":15.00231883,"ECCENTRICITY":0.0007402,"INCLINATION":97.52,"RA_OF_ASC_NODE":258.5581,"ARG_OF_PERICENTER":83.3763,"MEAN_ANOMALY":276.8303,"EPHEMERIS_TYPE":0,"NORAD_CAT_ID":66781,"ELEMENT_SET_NO":999,"REV_AT_EPOCH":2566,"BSTAR":0.00033756,"MEAN_MOTION_DOT":0.00004168,"MEAN_MOTION_DDOT":0},{"OBJECT_NAME":"LEMUR-2-FINNIAN","OBJECT_ID":"2025-276DX","EPOCH":"2026-07-07T03:40:46.055712","CLASSIFICATION_TYPE":"U","MEAN_MOTION":15.00553278,"ECCENTRICITY":0.0008124,"INCLINATION":97.5346,"RA_OF_ASC_NODE":258.5193,"ARG_OF_PERICENTER":28.2723,"MEAN_ANOMALY":331.894,"EPHEMERIS_TYPE":0,"NORAD_CAT_ID":66782,"ELEMENT_SET_NO":999,"REV_AT_EPOCH":2299,"BSTAR":0.00021743,"MEAN_MOTION_DOT":0.00002687,"MEAN_MOTION_DDOT":0},{"OBJECT_NAME":"LEMUR-2-STARLIGHT","OBJECT_ID":"2025-276DY","EPOCH":"2026-07-06T23:50:50.040672","CLASSIFICATION_TYPE":"U","MEAN_MOTION":14.99287934,"ECCENTRICITY":0.0014694,"INCLINATION":97.5224,"RA_OF_ASC_NODE":257.9552,"ARG_OF_PERICENTER":71.1239,"MEAN_ANOMALY":289.1577,"EPHEMERIS_TYPE":0,"NORAD_CAT_ID":66783,"ELEMENT_SET_NO":999,"REV_AT_EPOCH":3316,"BSTAR":0.00042157,"MEAN_MOTION_DOT":0.00005101,"MEAN_MOTION_DDOT":0},{"OBJECT_NAME":"LEMUR-2-TARTIFLETTE","OBJECT_ID":"2025-276DZ","EPOCH":"2026-07-06T17:24:00.207360","CLASSIFICATION_TYPE":"U","MEAN_MOTION":14.99277169,"ECCENTRICITY":0.001373,"INCLINATION":97.5225,"RA_OF_ASC_NODE":257.7037,"ARG_OF_PERICENTER":79.6577,"MEAN_ANOMALY":280.6194,"EPHEMERIS_TYPE":0,"NORAD_CAT_ID":66784,"ELEMENT_SET_NO":999,"REV_AT_EPOCH":3312,"BSTAR":0.00034914,"MEAN_MOTION_DOT":0.00004212,"MEAN_MOTION_DDOT":0},{"OBJECT_NAME":"LEMUR-2-VUKASIN","OBJECT_ID":"2025-276EA","EPOCH":"2026-07-07T10:27:28.787904","CLASSIFICATION_TYPE":"U","MEAN_MOTION":15.00499035,"ECCENTRICITY":0.0004226,"INCLINATION":97.5242,"RA_OF_ASC_NODE":258.7341,"ARG_OF_PERICENTER":77.4971,"MEAN_ANOMALY":282.6726,"EPHEMERIS_TYPE":0,"NORAD_CAT_ID":66785,"ELEMENT_SET_NO":999,"REV_AT_EPOCH":3318,"BSTAR":0.00028586,"MEAN_MOTION_DOT":0.00003545,"MEAN_MOTION_DDOT":0},{"OBJECT_NAME":"LEMUR-2-HOTSPUR-TOM","OBJECT_ID":"2025-276EB","EPOCH":"2026-07-06T17:15:10.376640","CLASSIFICATION_TYPE":"U","MEAN_MOTION":14.99183448,"ECCENTRICITY":0.0013989,"INCLINATION":97.5216,"RA_OF_ASC_NODE":257.6747,"ARG_OF_PERICENTER":70.923,"MEAN_ANOMALY":289.3507,"EPHEMERIS_TYPE":0,"NORAD_CAT_ID":66786,"ELEMENT_SET_NO":999,"REV_AT_EPOCH":3305,"BSTAR":0.00037145,"MEAN_MOTION_DOT":0.00004474,"MEAN_MOTION_DDOT":0}]}
